ONEWEB-0094             
1 45450U 20020AC  24136.57807292 -.00000148  00000+0 -41424-3 0  9990
2 45450  87.9171 157.6227 0001927  96.9692 263.1659 13.17649290205880
ONEWEB-0087             
1 45451U 20020AD  24136.59385838 -.00000521  00000+0 -15038-2 0  9996
2 45451  87.8974 172.7434 0001847 100.6701 259.4635 13.11480754202638
ONEWEB-0082             
1 45452U 20020AE  24136.59514914 -.00000500  00000+0 -14444-2 0  9993
2 45452  87.8981 172.7468 0002081  95.6851 264.4515 13.11559167202733
ONEWEB-0034             
1 45454U 20020AG  24136.84471603  .00000304  00000+0  82226-3 0  9994
2 45454  87.8982 172.7160 0001994  95.5858 264.5498 13.11307098202671
ONEWEB-0060             
1 45455U 20020AH  24136.85260818  .00000575  00000+0  15869-2 0  9998
2 45455  87.8983 172.7131 0001858  95.3929 264.7411 13.11356175202630
ONEWEB-0086             
1 45456U 20020AJ  24136.64156066  .00000200  00000+0  52898-3 0  9994
2 45456  87.8978 172.7577 0001850 107.3186 252.8145 13.11357185202667
ONEWEB-0088             
1 45457U 20020AK  24136.84804694  .00000456  00000+0  12540-2 0  9996
2 45457  87.8975 172.6833 0001892  95.8764 264.2579 13.11290175202627
